<?xml version="1.0" encoding="UTF-8"?>
<ndm xmlns:xsi="http://www.w3.org/2001/XMLSchema-instance" xsi:noNamespaceSchemaLocation="https://sanaregistry.org/r/ndmxml_unqualified/ndmxml-2.0.0-master-2.0.xsd">
<omm id="CCSDS_OMM_VERS" version="2.0">
<header><CREATION_DATE/><ORIGINATOR/></header><body><segment><metadata><OBJECT_NAME>KUIPER-00104</OBJECT_NAME><OBJECT_ID>2025-171L</OBJECT_ID><CENTER_NAME>EARTH</CENTER_NAME><REF_FRAME>TEME</REF_FRAME><TIME_SYSTEM>UTC</TIME_SYSTEM><MEAN_ELEMENT_THEORY>SGP4</MEAN_ELEMENT_THEORY></metadata><data><meanElements><EPOCH>2025-11-22T20:00:01.999008</EPOCH><MEAN_MOTION>15.03067310</MEAN_MOTION><ECCENTRICITY>.0004257</ECCENTRICITY><INCLINATION>51.8906</INCLINATION><RA_OF_ASC_NODE>270.9043</RA_OF_ASC_NODE><ARG_OF_PERICENTER>150.0950</ARG_OF_PERICENTER><MEAN_ANOMALY>90.8699</MEAN_ANOMALY></meanElements><tleParameters><EPHEMERIS_TYPE>0</EPHEMERIS_TYPE><CLASSIFICATION_TYPE>U</CLASSIFICATION_TYPE><NORAD_CAT_ID>65142</NORAD_CAT_ID><ELEMENT_SET_NO>999</ELEMENT_SET_NO><REV_AT_EPOCH>318</REV_AT_EPOCH><BSTAR>.20667E-2</BSTAR><MEAN_MOTION_DOT>.28016E-3</MEAN_MOTION_DOT><MEAN_MOTION_DDOT>0</MEAN_MOTION_DDOT></tleParameters></data></segment></body></omm>
<omm id="CCSDS_OMM_VERS" version="2.0">
<header><CREATION_DATE/><ORIGINATOR/></header><body><segment><metadata><OBJECT_NAME>KUIPER-00105</OBJECT_NAME><OBJECT_ID>2025-171M</OBJECT_ID><CENTER_NAME>EARTH</CENTER_NAME><REF_FRAME>TEME</REF_FRAME><TIME_SYSTEM>UTC</TIME_SYSTEM><MEAN_ELEMENT_THEORY>SGP4</MEAN_ELEMENT_THEORY></metadata><data><meanElements><EPOCH>2025-11-22T20:00:01.999008</EPOCH><MEAN_MOTION>14.79784332</MEAN_MOTION><ECCENTRICITY>.001327</ECCENTRICITY><INCLINATION>51.9003</INCLINATION><RA_OF_ASC_NODE>278.1683</RA_OF_ASC_NODE><ARG_OF_PERICENTER>112.9404</ARG_OF_PERICENTER><MEAN_ANOMALY>227.7951</MEAN_ANOMALY></meanElements><tleParameters><EPHEMERIS_TYPE>0</EPHEMERIS_TYPE><CLASSIFICATION_TYPE>U</CLASSIFICATION_TYPE><NORAD_CAT_ID>65143</NORAD_CAT_ID><ELEMENT_SET_NO>999</ELEMENT_SET_NO><REV_AT_EPOCH>510</REV_AT_EPOCH><BSTAR>.39653E-2</BSTAR><MEAN_MOTION_DOT>.30075E-3</MEAN_MOTION_DOT><MEAN_MOTION_DDOT>0</MEAN_MOTION_DDOT></tleParameters></data></segment></body></omm>
<omm id="CCSDS_OMM_VERS" version="2.0">
<header><CREATION_DATE/><ORIGINATOR/></header><body><segment><metadata><OBJECT_NAME>KUIPER-00106</OBJECT_NAME><OBJECT_ID>2025-171N</OBJECT_ID><CENTER_NAME>EARTH</CENTER_NAME><REF_FRAME>TEME</REF_FRAME><TIME_SYSTEM>UTC</TIME_SYSTEM><MEAN_ELEMENT_THEORY>SGP4</MEAN_ELEMENT_THEORY></metadata><data><meanElements><EPOCH>2025-11-22T06:47:32.235072</EPOCH><MEAN_MOTION>14.96227123</MEAN_MOTION><ECCENTRICITY>.00099212</ECCENTRICITY><INCLINATION>51.8945</INCLINATION><RA_OF_ASC_NODE>282.7439</RA_OF_ASC_NODE><ARG_OF_PERICENTER>100.8198</ARG_OF_PERICENTER><MEAN_ANOMALY>259.3888</MEAN_ANOMALY></meanElements><tleParameters><EPHEMERIS_TYPE>0</EPHEMERIS_TYPE><CLASSIFICATION_TYPE>U</CLASSIFICATION_TYPE><NORAD_CAT_ID>65144</NORAD_CAT_ID><ELEMENT_SET_NO>999</ELEMENT_SET_NO><REV_AT_EPOCH>1685</REV_AT_EPOCH><BSTAR>.8173962E-3</BSTAR><MEAN_MOTION_DOT>.9082E-4</MEAN_MOTION_DOT><MEAN_MOTION_DDOT>0</MEAN_MOTION_DDOT></tleParameters></data></segment></body></omm>
<omm id="CCSDS_OMM_VERS" version="2.0">
<header><CREATION_DATE/><ORIGINATOR/></header><body><segment><metadata><OBJECT_NAME>KUIPER-00107</OBJECT_NAME><OBJECT_ID>2025-171P</OBJECT_ID><CENTER_NAME>EARTH</CENTER_NAME><REF_FRAME>TEME</REF_FRAME><TIME_SYSTEM>UTC</TIME_SYSTEM><MEAN_ELEMENT_THEORY>SGP4</MEAN_ELEMENT_THEORY></metadata><data><meanElements><EPOCH>2025-11-22T20:00:01.999008</EPOCH><MEAN_MOTION>15.21160835</MEAN_MOTION><ECCENTRICITY>.0006716</ECCENTRICITY><INCLINATION>51.8813</INCLINATION><RA_OF_ASC_NODE>266.3649</RA_OF_ASC_NODE><ARG_OF_PERICENTER>139.2250</ARG_OF_PERICENTER><MEAN_ANOMALY>89.0053</MEAN_ANOMALY></meanElements><tleParameters><EPHEMERIS_TYPE>0</EPHEMERIS_TYPE><CLASSIFICATION_TYPE>U</CLASSIFICATION_TYPE><NORAD_CAT_ID>65145</NORAD_CAT_ID><ELEMENT_SET_NO>999</ELEMENT_SET_NO><REV_AT_EPOCH>462</REV_AT_EPOCH><BSTAR>-.10616E+0</BSTAR><MEAN_MOTION_DOT>-.2150211E-1</MEAN_MOTION_DOT><MEAN_MOTION_DDOT>0</MEAN_MOTION_DDOT></tleParameters></data></segment></body></omm>
<omm id="CCSDS_OMM_VERS" version="2.0">
<header><CREATION_DATE/><ORIGINATOR/></header><body><segment><metadata><OBJECT_NAME>KUIPER-00108</OBJECT_NAME><OBJECT_ID>2025-171Q</OBJECT_ID><CENTER_NAME>EARTH</CENTER_NAME><REF_FRAME>TEME</REF_FRAME><TIME_SYSTEM>UTC</TIME_SYSTEM><MEAN_ELEMENT_THEORY>SGP4</MEAN_ELEMENT_THEORY></metadata><data><meanElements><EPOCH>2025-11-22T20:00:01.999008</EPOCH><MEAN_MOTION>14.85732496</MEAN_MOTION><ECCENTRICITY>.0010186</ECCENTRICITY><INCLINATION>51.8965</INCLINATION><RA_OF_ASC_NODE>273.2180</RA_OF_ASC_NODE><ARG_OF_PERICENTER>118.1620</ARG_OF_PERICENTER><MEAN_ANOMALY>317.5707</MEAN_ANOMALY></meanElements><tleParameters><EPHEMERIS_TYPE>0</EPHEMERIS_TYPE><CLASSIFICATION_TYPE>U</CLASSIFICATION_TYPE><NORAD_CAT_ID>65146</NORAD_CAT_ID><ELEMENT_SET_NO>999</ELEMENT_SET_NO><REV_AT_EPOCH>483</REV_AT_EPOCH><BSTAR>.69815E-3</BSTAR><MEAN_MOTION_DOT>.5896E-4</MEAN_MOTION_DOT><MEAN_MOTION_DDOT>0</MEAN_MOTION_DDOT></tleParameters></data></segment></body></omm>
<omm id="CCSDS_OMM_VERS" version="2.0">
<header><CREATION_DATE/><ORIGINATOR/></header><body><segment><metadata><OBJECT_NAME>KUIPER-00109</OBJECT_NAME><OBJECT_ID>2025-171R</OBJECT_ID><CENTER_NAME>EARTH</CENTER_NAME><REF_FRAME>TEME</REF_FRAME><TIME_SYSTEM>UTC</TIME_SYSTEM><MEAN_ELEMENT_THEORY>SGP4</MEAN_ELEMENT_THEORY></metadata><data><meanElements><EPOCH>2025-11-22T20:00:01.999008</EPOCH><MEAN_MOTION>15.03061943</MEAN_MOTION><ECCENTRICITY>.0012071</ECCENTRICITY><INCLINATION>51.8883</INCLINATION><RA_OF_ASC_NODE>269.5172</RA_OF_ASC_NODE><ARG_OF_PERICENTER>138.6748</ARG_OF_PERICENTER><MEAN_ANOMALY>60.0244</MEAN_ANOMALY></meanElements><tleParameters><EPHEMERIS_TYPE>0</EPHEMERIS_TYPE><CLASSIFICATION_TYPE>U</CLASSIFICATION_TYPE><NORAD_CAT_ID>65147</NORAD_CAT_ID><ELEMENT_SET_NO>999</ELEMENT_SET_NO><REV_AT_EPOCH>349</REV_AT_EPOCH><BSTAR>.10821E-2</BSTAR><MEAN_MOTION_DOT>.14525E-3</MEAN_MOTION_DOT><MEAN_MOTION_DDOT>0</MEAN_MOTION_DDOT></tleParameters></data></segment></body></omm>
<omm id="CCSDS_OMM_VERS" version="2.0">
<header><CREATION_DATE/><ORIGINATOR/></header><body><segment><metadata><OBJECT_NAME>KUIPER-00110</OBJECT_NAME><OBJECT_ID>2025-171S</OBJECT_ID><CENTER_NAME>EARTH</CENTER_NAME><REF_FRAME>TEME</REF_FRAME><TIME_SYSTEM>UTC</TIME_SYSTEM><MEAN_ELEMENT_THEORY>SGP4</MEAN_ELEMENT_THEORY></metadata><data><meanElements><EPOCH>2025-11-22T06:56:25.525248</EPOCH><MEAN_MOTION>14.79898702</MEAN_MOTION><ECCENTRICITY>.00113735</ECCENTRICITY><INCLINATION>51.8995</INCLINATION><RA_OF_ASC_NODE>282.6678</RA_OF_ASC_NODE><ARG_OF_PERICENTER>114.4536</ARG_OF_PERICENTER><MEAN_ANOMALY>245.7614</MEAN_ANOMALY></meanElements><tleParameters><EPHEMERIS_TYPE>0</EPHEMERIS_TYPE><CLASSIFICATION_TYPE>U</CLASSIFICATION_TYPE><NORAD_CAT_ID>65148</NORAD_CAT_ID><ELEMENT_SET_NO>999</ELEMENT_SET_NO><REV_AT_EPOCH>1684</REV_AT_EPOCH><BSTAR>.69611532E-3</BSTAR><MEAN_MOTION_DOT>.5088E-4</MEAN_MOTION_DOT><MEAN_MOTION_DDOT>0</MEAN_MOTION_DDOT></tleParameters></data></segment></body></omm>
<omm id="CCSDS_OMM_VERS" version="2.0">
<header><CREATION_DATE/><ORIGINATOR/></header><body><segment><metadata><OBJECT_NAME>KUIPER-00111</OBJECT_NAME><OBJECT_ID>2025-171T</OBJECT_ID><CENTER_NAME>EARTH</CENTER_NAME><REF_FRAME>TEME</REF_FRAME><TIME_SYSTEM>UTC</TIME_SYSTEM><MEAN_ELEMENT_THEORY>SGP4</MEAN_ELEMENT_THEORY></metadata><data><meanElements><EPOCH>2025-11-22T06:54:47.310912</EPOCH><MEAN_MOTION>14.80032270</MEAN_MOTION><ECCENTRICITY>.00099009</ECCENTRICITY><INCLINATION>51.8959</INCLINATION><RA_OF_ASC_NODE>287.9962</RA_OF_ASC_NODE><ARG_OF_PERICENTER>122.5321</ARG_OF_PERICENTER><MEAN_ANOMALY>237.6599</MEAN_ANOMALY></meanElements><tleParameters><EPHEMERIS_TYPE>0</EPHEMERIS_TYPE><CLASSIFICATION_TYPE>U</CLASSIFICATION_TYPE><NORAD_CAT_ID>65149</NORAD_CAT_ID><ELEMENT_SET_NO>999</ELEMENT_SET_NO><REV_AT_EPOCH>1677</REV_AT_EPOCH><BSTAR>.43958089E-4</BSTAR><MEAN_MOTION_DOT>.112E-5</MEAN_MOTION_DOT><MEAN_MOTION_DDOT>0</MEAN_MOTION_DDOT></tleParameters></data></segment></body></omm>

</ndm>
