KUIPER-00104            
1 65142U 25171L   25326.83335647  .00028016  00000+0  20667-2 0  9990
2 65142  51.8906 270.9043 0004257 150.0950  90.8699 15.03067310  3181
KUIPER-00105            
1 65143U 25171M   25326.83335647  .00030075  00000+0  39653-2 0  9994
2 65143  51.9003 278.1683 0013270 112.9404 227.7951 14.79784332  5105
KUIPER-00106            
1 65144U 25171N   25326.28301198  .00009082  00000+0  81740-3 0  9997
2 65144  51.8945 282.7439 0009921 100.8198 259.3888 14.96227123 16857
KUIPER-00107            
1 65145U 25171P   25326.83335647 -.02150211  00000+0 -10616+0 0  9990
2 65145  51.8813 266.3649 0006716 139.2250  89.0053 15.21160835  4626
KUIPER-00108            
1 65146U 25171Q   25326.83335647  .00005896  00000+0  69815-3 0  9994
2 65146  51.8965 273.2180 0010186 118.1620 317.5707 14.85732496  4830
KUIPER-00109            
1 65147U 25171R   25326.83335647  .00014525  00000+0  10821-2 0  9996
2 65147  51.8883 269.5172 0012071 138.6748  60.0244 15.03061943  3492
KUIPER-00110            
1 65148U 25171S   25326.28918432  .00005088  00000+0  69612-3 0  9992
2 65148  51.8995 282.6678 0011373 114.4536 245.7614 14.79898702 16844
KUIPER-00111            
1 65149U 25171T   25326.28804758  .00000112  00000+0  43958-4 0  9997
2 65149  51.8959 287.9962 0009900 122.5321 237.6599 14.80032270 16770
